NORAD_CAT_ID,OBJECT_NAME,OBJECT_TYPE,EPOCH,MEAN_MOTION,ECCENTRICITY,INCLINATION,RA_OF_ASC_NODE,ARG_OF_PERICENTER,MEAN_ANOMALY,BSTAR,MEAN_MOTION_DOT,MEAN_MOTION_DDOT,TLE_LINE0,TLE_LINE1,TLE_LINE2,SEMIMAJOR_AXIS,PERIOD,APOGEE,PERIGEE,DECAYED
49180.0,STARLINK-3050,PAYLOAD,2022-10-12 16:36:15,14.98330734,0.000279,70.0039,171.0067,258.0912,101.9934,0.00020258,2.325e-05,0.0,0 STARLINK-3050,1 49180U 21082BC  22285.69185147  .00002325  00000-0  20258-3 0  9997,2 49180  70.0039 171.0067 0002790 258.0912 101.9934 14.98330734 61309,6950.191,96.107,573.995,570.117,0.0
49180.0,STARLINK-3050,PAYLOAD,2022-10-13 02:13:05,14.98315651,0.0002419,70.0032,169.9968,257.1602,102.9287,9.2032e-05,1.005e-05,0.0,0 STARLINK-3050,1 49180U 21082BC  22286.09242143  .00001005  00000-0  92032-4 0  9996,2 49180  70.0032 169.9968 0002419 257.1602 102.9287 14.98315651 61361,6950.236999999999,96.108,573.784,570.4209999999998,0.0
49180.0,STARLINK-3050,PAYLOAD,2022-10-13 10:13:45,14.98324531,0.0002891,70.0032,169.1553,255.6241,104.4597,0.0002174,2.502e-05,0.0,0 STARLINK-3050,1 49180U 21082BC  22286.42621784  .00002502  00000-0  21740-3 0  9995,2 49180  70.0032 169.1553 0002891 255.6241 104.4597 14.98324531 61413,6950.21,96.107,574.0840000000002,570.065,0.0
49180.0,STARLINK-3050,PAYLOAD,2022-10-14 02:15:05,14.98335521,0.0002766,70.0015,167.4722,255.8991,104.1861,0.00035922,4.196e-05,0.0,0 STARLINK-3050,1 49180U 21082BC  22287.09381400  .00004196  00000-0  35922-3 0  9995,2 49180  70.0015 167.4722 0002766 255.8991 104.1861 14.98335521 61511,6950.176,96.107,573.9630000000002,570.118,0.0
49180.0,STARLINK-3050,PAYLOAD,2022-10-14 15:04:09,14.98344609,0.0002849,70.0004,166.1257,256.0881,103.9961,0.00031671,3.689e-05,0.0,0 STARLINK-3050,1 49180U 21082BC  22287.62788731  .00003689  00000-0  31671-3 0  9995,2 49180  70.0004 166.1257 0002849 256.0881 103.9961 14.98344609 61594,6950.148,96.106,573.993,570.033,0.0
49180.0,STARLINK-3050,PAYLOAD,2022-10-15 11:53:53,14.98339991,0.0002896,70.0012,163.9379,255.4136,104.6702,0.00011326,1.259e-05,0.0,0 STARLINK-3050,1 49180U 21082BC  22288.49576339  .00001259  00000-0  11326-3 0  9996,2 49180  70.0012 163.9379 0002896 255.4136 104.6702 14.98339991 61725,6950.1619999999975,96.106,574.04,570.014,0.0
49180.0,STARLINK-3050,PAYLOAD,2022-10-15 18:18:26,14.98340639,0.000293,70.0011,163.2646,255.0604,105.023,7.3879e-05,7.89e-06,0.0,0 STARLINK-3050,1 49180U 21082BC  22288.76280136  .00000789  00000-0  73879-4 0  9992,2 49180  70.0011 163.2646 0002930 255.0604 105.0230 14.98340639 61765,6950.16,96.106,574.061,569.989,0.0
49180.0,STARLINK-3050,PAYLOAD,2022-10-16 11:55:55,14.98334735,0.0002944,70.0001,161.4135,253.4374,106.6462,-3.7088e-05,-5.36e-06,0.0,0 STARLINK-3050,1 49180U 21082BC  22289.49716442 -.00000536  00000-0 -37088-4 0  9991,2 49180  70.0001 161.4135 0002944 253.4374 106.6462 14.98334735 61874,6950.178000000001,96.107,574.089,569.997,0.0
49180.0,STARLINK-3050,PAYLOAD,2022-10-16 19:56:36,14.98322832,0.0003106,70.0,160.5714,255.4829,104.5986,-0.00014494,-1.822e-05,0.0,0 STARLINK-3050,1 49180U 21082BC  22289.83097355 -.00001822  00000-0 -14494-3 0  9998,2 49180  70.0000 160.5714 0003106 255.4829 104.5986 14.98322832 61923,6950.215,96.107,574.239,569.9209999999998,0.0
49180.0,STARLINK-3050,PAYLOAD,2022-10-17 11:57:56,14.98328955,0.0002992,69.9999,158.889,254.888,105.1948,-9.0651e-05,-1.174e-05,0.0,0 STARLINK-3050,1 49180U 21082BC  22290.49857047 -.00001174  00000-0 -90651-4 0  9994,2 49180  69.9999 158.8890 0002992 254.8880 105.1948 14.98328955 62023,6950.196,96.107,574.141,569.982,0.0
49180.0,STARLINK-3050,PAYLOAD,2022-10-17 18:22:28,14.983258,0.0002961,69.9999,158.2156,251.4924,108.5913,3.9035e-05,3.73e-06,0.0,0 STARLINK-3050,1 49180U 21082BC  22290.76561043  .00000373  00000-0  39035-4 0  9999,2 49180  69.9999 158.2156 0002961 251.4924 108.5913 14.98325800 62069,6950.206,96.107,574.129,570.013,0.0
49180.0,STARLINK-3050,PAYLOAD,2022-10-18 10:23:49,14.98330476,0.0003054,69.9998,156.5321,251.7976,108.2851,0.00012086,1.349e-05,0.0,0 STARLINK-3050,1 49180U 21082BC  22291.43320778  .00001349  00000-0  12086-3 0  9992,2 49180  69.9998 156.5321 0003054 251.7976 108.2851 14.98330476 62161,6950.191,96.107,574.179,569.934,0.0
49180.0,STARLINK-3050,PAYLOAD,2022-10-18 15:12:13,14.98332565,0.0003052,69.9998,156.0272,251.7732,108.3095,0.00014449,1.632e-05,0.0,0 STARLINK-3050,1 49180U 21082BC  22291.63348643  .00001632  00000-0  14449-3 0  9995,2 49180  69.9998 156.0272 0003052 251.7732 108.3095 14.98332565 62194,6950.185,96.107,574.1709999999998,569.929,0.0
49180.0,STARLINK-3050,PAYLOAD,2022-10-18 20:00:37,14.98335609,0.0003058999999999,69.9997,155.5222,252.3772,107.7053,0.00017919,2.046e-05,0.0,0 STARLINK-3050,1 49180U 21082BC  22291.83376426  .00002046  00000-0  17919-3 0  9992,2 49180  69.9997 155.5222 0003059 252.3772 107.7053 14.98335609 62223,6950.176,96.107,574.1669999999998,569.914,0.0
49180.0,STARLINK-3050,PAYLOAD,2022-10-19 13:38:06,14.98335407,0.0003119,69.9996,153.6708,256.415,103.6662,0.0002275,2.623e-05,0.0,0 STARLINK-3050,1 49180U 21082BC  22292.56812553  .00002623  00000-0  22750-3 0  9999,2 49180  69.9996 153.6708 0003119 256.4150 103.6662 14.98335407 62331,6950.176,96.107,574.2090000000002,569.873,0.0
49180.0,STARLINK-3050,PAYLOAD,2022-10-19 20:02:38,14.98335387,0.0003121,69.9996,152.9974,256.3681,103.7131,0.00020957,2.409e-05,0.0,0 STARLINK-3050,1 49180U 21082BC  22292.83516509  .00002409  00000-0  20957-3 0  9990,2 49180  69.9996 152.9974 0003121 256.3681 103.7131 14.98335387 62372,6950.176,96.107,574.21,569.872,0.0
49180.0,STARLINK-3050,PAYLOAD,2022-10-19 21:38:46,14.98336038,0.0003115,69.9997,152.8289,256.0147,104.0666,0.00021743,2.503e-05,0.0,0 STARLINK-3050,1 49180U 21082BC  22292.90192464  .00002503  00000-0  21743-3 0  9997,2 49180  69.9997 152.8289 0003115 256.0147 104.0666 14.98336038 62380,6950.174,96.107,574.2040000000002,569.874,0.0
49180.0,STARLINK-3050,PAYLOAD,2022-10-20 00:51:01,14.98344562,0.0003094,70.0011,152.4925,256.6983,103.3831,0.00029755,3.46e-05,0.0,0 STARLINK-3050,1 49180U 21082BC  22293.03543918  .00003460  00000-0  29755-3 0  9990,2 49180  70.0011 152.4925 0003094 256.6983 103.3831 14.98344562 62403,6950.148,96.106,574.163,569.862,0.0
49180.0,STARLINK-3050,PAYLOAD,2022-10-20 21:40:47,14.98330396,0.0002973999999999,70.002,150.3031,261.8394,98.2428,0.00037798,4.42e-05,0.0,0 STARLINK-3050,1 49180U 21082BC  22293.90332441  .00004420  00000-0  37798-3 0  9996,2 49180  70.0020 150.3031 0002974 261.8394  98.2428 14.98330396 62536,6950.191999999999,96.107,574.124,569.99,0.0
49180.0,STARLINK-3050,PAYLOAD,2022-10-21 00:53:02,14.98334605,0.0003091,70.0004,149.9676,256.7201,103.3613,5.6547e-06,-2.6e-07,0.0,0 STARLINK-3050,1 49180U 21082BC  22294.03683994 -.00000026  00000-0  56547-5 0  9997,2 49180  70.0004 149.9676 0003091 256.7201 103.3613 14.98334605 62551,6950.179,96.107,574.192,569.895,0.0
49180.0,STARLINK-3050,PAYLOAD,2022-10-21 07:17:35,14.98334358,0.0002942,70.0012,149.2939,261.3977,98.6849,-5.6852e-05,-7.71e-06,0.0,0 STARLINK-3050,1 49180U 21082BC  22294.30387965 -.00000771  00000-0 -56852-4 0  9992,2 49180  70.0012 149.2939 0002942 261.3977  98.6849 14.98334358 62597,6950.179,96.107,574.089,570.0,0.0
49180.0,STARLINK-3050,PAYLOAD,2022-10-21 16:54:23,14.98332726,0.0002928999999999,69.9992,148.2846,256.235,103.8483,0.00010837,1.2e-05,0.0,0 STARLINK-3050,1 49180U 21082BC  22294.70444234  .00001200  00000-0  10837-3 0  9997,2 49180  69.9992 148.2846 0002929 256.2350 103.8483 14.98332726 62657,6950.184,96.107,574.085,570.014,0.0
49180.0,STARLINK-3050,PAYLOAD,2022-10-22 00:55:04,14.98326211,0.0003291,69.9993,147.4422,251.5295,108.5507,-0.00012542,-1.589e-05,0.0,0 STARLINK-3050,1 49180U 21082BC  22295.03824705 -.00001589  00000-0 -12542-3 0  9996,2 49180  69.9993 147.4422 0003291 251.5295 108.5507 14.98326211 62705,6950.205,96.107,574.357,569.7819999999998,0.0
49180.0,STARLINK-3050,PAYLOAD,2022-10-22 13:44:09,14.98314181,0.0003051,69.9995,146.0964,252.1949,107.8877,0.00015746,1.786e-05,0.0,0 STARLINK-3050,1 49180U 21082BC  22295.57233296  .00001786  00000-0  15746-3 0  9990,2 49180  69.9995 146.0964 0003051 252.1949 107.8877 14.98314181 62783,6950.2419999999975,96.108,574.227,569.986,0.0
49180.0,STARLINK-3050,PAYLOAD,2022-10-22 20:08:41,14.98334596,0.0002926,70.0005,145.4226,256.4951,103.5882,-0.00043826,-5.319e-05,0.0,0 STARLINK-3050,1 49180U 21082BC  22295.83936446 -.00005319  00000-0 -43826-3 0  9994,2 49180  70.0005 145.4226 0002926 256.4951 103.5882 14.98334596 62828,6950.179,96.107,574.077,570.01,0.0
49180.0,STARLINK-3050,PAYLOAD,2022-10-23 07:21:37,14.98333673,0.0002874,70.0004,144.2444,256.3219,103.7621,-0.0001943,-2.411e-05,0.0,0 STARLINK-3050,1 49180U 21082BC  22296.30668619 -.00002411  00000-0 -19430-3 0  9995,2 49180  70.0004 144.2444 0002874 256.3219 103.7621 14.98333673 62899,6950.182,96.107,574.044,570.049,0.0
49180.0,STARLINK-3050,PAYLOAD,2022-10-23 20:10:42,14.98329359,0.0002742,70.0002,142.8978,257.9233,102.1619,0.00017733,2.023e-05,0.0,0 STARLINK-3050,1 49180U 21082BC  22296.84077341  .00002023  00000-0  17733-3 0  9991,2 49180  70.0002 142.8978 0002742 257.9233 102.1619 14.98329359 62975,6950.195,96.107,573.966,570.154,0.0
49180.0,STARLINK-3050,PAYLOAD,2022-10-24 12:12:03,14.98334174,0.0002895,70.0003,141.2147,253.126,106.9582,0.00042256,4.953e-05,0.0,0 STARLINK-3050,1 49180U 21082BC  22297.50837414  .00004953  00000-0  42256-3 0  9992,2 49180  70.0003 141.2147 0002895 253.1260 106.9582 14.98334174 63078,6950.18,96.107,574.057,570.033,0.0
49180.0,STARLINK-3050,PAYLOAD,2022-10-24 18:36:35,14.98335532,0.0002868,70.0004,140.5413,253.3047,106.7797,0.00038535,4.509e-05,0.0,0 STARLINK-3050,1 49180U 21082BC  22297.77541383  .00004509  00000-0  38535-3 0  9990,2 49180  70.0004 140.5413 0002868 253.3047 106.7797 14.98335532 63112,6950.176,96.107,574.034,570.047,0.0
